[{"OBJECT_NAME":"TISAT 1","OBJECT_ID":"2010-035E","EPOCH":"2026-03-09T18:10:07.877568","MEAN_MOTION":15.27628633,"ECCENTRICITY":0.00013432,"INCLINATION":98.0645,"RA_OF_ASC_NODE":6.8512,"ARG_OF_PERICENTER":159.303,"MEAN_ANOMALY":200.8262,"EPHEMERIS_TYPE":0,"CLASSIFICATION_TYPE":"U","NORAD_CAT_ID":36799,"ELEMENT_SET_NO":999,"REV_AT_EPOCH":85250,"BSTAR":0.00091004793,"MEAN_MOTION_DOT":0.00024554,"MEAN_MOTION_DDOT":0},{"OBJECT_NAME":"STARLINK-36546","OBJECT_ID":"2026-008Q","EPOCH":"2026-03-09T11:11:12.558912","MEAN_MOTION":15.27603549,"ECCENTRICITY":0.00037746,"INCLINATION":43.0026,"RA_OF_ASC_NODE":206.8678,"ARG_OF_PERICENTER":299.9737,"MEAN_ANOMALY":60.074,"EPHEMERIS_TYPE":0,"CLASSIFICATION_TYPE":"U","NORAD_CAT_ID":67459,"ELEMENT_SET_NO":999,"REV_AT_EPOCH":953,"BSTAR":0.00087949749,"MEAN_MOTION_DOT":0.00024039,"MEAN_MOTION_DDOT":0}]
